CCSDS_OMM_VERS = 2.0
CREATION_DATE  = 
ORIGINATOR     = 

OBJECT_NAME    = STARLINK-36719
OBJECT_ID      = 2026-022A
CENTER_NAME    = EARTH
REF_FRAME      = TEME
TIME_SYSTEM    = UTC
MEAN_ELEMENT_THEORY = SGP/SGP4

EPOCH          = 2026-02-22T19:07:59.075328
MEAN_MOTION    = 15.75301330
ECCENTRICITY   = .0001259
INCLINATION    = 97.2835
RA_OF_ASC_NODE = 87.0268
ARG_OF_PERICENTER = 96.2476
MEAN_ANOMALY   = 263.8932

EPHEMERIS_TYPE = 0
CLASSIFICATION_TYPE = U
NORAD_CAT_ID   = 67648
ELEMENT_SET_NO = 999
REV_AT_EPOCH   = 320
BSTAR          = .13487E-2
MEAN_MOTION_DOT = .20698E-2
MEAN_MOTION_DDOT = 0

CCSDS_OMM_VERS = 2.0
CREATION_DATE  = 
ORIGINATOR     = 

OBJECT_NAME    = STARLINK-36342
OBJECT_ID      = 2026-022B
CENTER_NAME    = EARTH
REF_FRAME      = TEME
TIME_SYSTEM    = UTC
MEAN_ELEMENT_THEORY = SGP/SGP4

EPOCH          = 2026-02-22T19:06:58.212576
MEAN_MOTION    = 15.75279163
ECCENTRICITY   = .0001431
INCLINATION    = 97.2840
RA_OF_ASC_NODE = 87.0273
ARG_OF_PERICENTER = 85.4609
MEAN_ANOMALY   = 274.6820

EPHEMERIS_TYPE = 0
CLASSIFICATION_TYPE = U
NORAD_CAT_ID   = 67649
ELEMENT_SET_NO = 999
REV_AT_EPOCH   = 320
BSTAR          = .8472E-3
MEAN_MOTION_DOT = .128651E-2
MEAN_MOTION_DDOT = 0

CCSDS_OMM_VERS = 2.0
CREATION_DATE  = 
ORIGINATOR     = 

OBJECT_NAME    = STARLINK-36703
OBJECT_ID      = 2026-022C
CENTER_NAME    = EARTH
REF_FRAME      = TEME
TIME_SYSTEM    = UTC
MEAN_ELEMENT_THEORY = SGP/SGP4

EPOCH          = 2026-02-22T19:05:26.658816
MEAN_MOTION    = 15.75310138
ECCENTRICITY   = .0001549
INCLINATION    = 97.2838
RA_OF_ASC_NODE = 87.0286
ARG_OF_PERICENTER = 116.2032
MEAN_ANOMALY   = 243.9393

EPHEMERIS_TYPE = 0
CLASSIFICATION_TYPE = U
NORAD_CAT_ID   = 67650
ELEMENT_SET_NO = 999
REV_AT_EPOCH   = 320
BSTAR          = .16958E-2
MEAN_MOTION_DOT = .262088E-2
MEAN_MOTION_DDOT = 0

CCSDS_OMM_VERS = 2.0
CREATION_DATE  = 
ORIGINATOR     = 

OBJECT_NAME    = STARLINK-36696
OBJECT_ID      = 2026-022D
CENTER_NAME    = EARTH
REF_FRAME      = TEME
TIME_SYSTEM    = UTC
MEAN_ELEMENT_THEORY = SGP/SGP4

EPOCH          = 2026-02-22T14:28:28.593408
MEAN_MOTION    = 15.75268771
ECCENTRICITY   = .0001679
INCLINATION    = 97.2840
RA_OF_ASC_NODE = 86.8312
ARG_OF_PERICENTER = 106.3080
MEAN_ANOMALY   = 253.8370

EPHEMERIS_TYPE = 0
CLASSIFICATION_TYPE = U
NORAD_CAT_ID   = 67651
ELEMENT_SET_NO = 999
REV_AT_EPOCH   = 317
BSTAR          = .11809E-2
MEAN_MOTION_DOT = .180394E-2
MEAN_MOTION_DDOT = 0

CCSDS_OMM_VERS = 2.0
CREATION_DATE  = 
ORIGINATOR     = 

OBJECT_NAME    = STARLINK-36699
OBJECT_ID      = 2026-022E
CENTER_NAME    = EARTH
REF_FRAME      = TEME
TIME_SYSTEM    = UTC
MEAN_ELEMENT_THEORY = SGP/SGP4

EPOCH          = 2026-02-22T19:01:53.340672
MEAN_MOTION    = 15.75303838
ECCENTRICITY   = .0001402
INCLINATION    = 97.2837
RA_OF_ASC_NODE = 87.0323
ARG_OF_PERICENTER = 107.8050
MEAN_ANOMALY   = 252.3369

EPHEMERIS_TYPE = 0
CLASSIFICATION_TYPE = U
NORAD_CAT_ID   = 67652
ELEMENT_SET_NO = 999
REV_AT_EPOCH   = 320
BSTAR          = .14064E-2
MEAN_MOTION_DOT = .216097E-2
MEAN_MOTION_DDOT = 0

CCSDS_OMM_VERS = 2.0
CREATION_DATE  = 
ORIGINATOR     = 

OBJECT_NAME    = STARLINK-36694
OBJECT_ID      = 2026-022F
CENTER_NAME    = EARTH
REF_FRAME      = TEME
TIME_SYSTEM    = UTC
MEAN_ELEMENT_THEORY = SGP/SGP4

EPOCH          = 2026-02-22T17:27:21.947904
MEAN_MOTION    = 15.75287277
ECCENTRICITY   = .0001738
INCLINATION    = 97.2838
RA_OF_ASC_NODE = 86.9689
ARG_OF_PERICENTER = 95.2894
MEAN_ANOMALY   = 264.8570

EPHEMERIS_TYPE = 0
CLASSIFICATION_TYPE = U
NORAD_CAT_ID   = 67653
ELEMENT_SET_NO = 999
REV_AT_EPOCH   = 319
BSTAR          = .1324E-2
MEAN_MOTION_DOT = .20297E-2
MEAN_MOTION_DDOT = 0

CCSDS_OMM_VERS = 2.0
CREATION_DATE  = 
ORIGINATOR     = 

OBJECT_NAME    = STARLINK-36620
OBJECT_ID      = 2026-022G
CENTER_NAME    = EARTH
REF_FRAME      = TEME
TIME_SYSTEM    = UTC
MEAN_ELEMENT_THEORY = SGP/SGP4

EPOCH          = 2026-02-22T20:29:48.528960
MEAN_MOTION    = 15.75345846
ECCENTRICITY   = .0001481
INCLINATION    = 97.2839
RA_OF_ASC_NODE = 87.1016
ARG_OF_PERICENTER = 129.5588
MEAN_ANOMALY   = 230.5808

EPHEMERIS_TYPE = 0
CLASSIFICATION_TYPE = U
NORAD_CAT_ID   = 67654
ELEMENT_SET_NO = 999
REV_AT_EPOCH   = 321
BSTAR          = .22824E-2
MEAN_MOTION_DOT = .357348E-2
MEAN_MOTION_DDOT = 0

CCSDS_OMM_VERS = 2.0
CREATION_DATE  = 
ORIGINATOR     = 

OBJECT_NAME    = STARLINK-36720
OBJECT_ID      = 2026-022H
CENTER_NAME    = EARTH
REF_FRAME      = TEME
TIME_SYSTEM    = UTC
MEAN_ELEMENT_THEORY = SGP/SGP4

EPOCH          = 2026-02-22T18:55:47.506656
MEAN_MOTION    = 15.75316828
ECCENTRICITY   = .0001848
INCLINATION    = 97.2839
RA_OF_ASC_NODE = 87.0378
ARG_OF_PERICENTER = 111.8826
MEAN_ANOMALY   = 248.2636

EPHEMERIS_TYPE = 0
CLASSIFICATION_TYPE = U
NORAD_CAT_ID   = 67655
ELEMENT_SET_NO = 999
REV_AT_EPOCH   = 320
BSTAR          = .15827E-2
MEAN_MOTION_DOT = .244144E-2
MEAN_MOTION_DDOT = 0

CCSDS_OMM_VERS = 2.0
CREATION_DATE  = 
ORIGINATOR     = 

OBJECT_NAME    = STARLINK-36688
OBJECT_ID      = 2026-022J
CENTER_NAME    = EARTH
REF_FRAME      = TEME
TIME_SYSTEM    = UTC
MEAN_ELEMENT_THEORY = SGP/SGP4

EPOCH          = 2026-02-22T18:54:46.675872
MEAN_MOTION    = 15.75287125
ECCENTRICITY   = .0001452
INCLINATION    = 97.2841
RA_OF_ASC_NODE = 87.0379
ARG_OF_PERICENTER = 99.2193
MEAN_ANOMALY   = 260.9236

EPHEMERIS_TYPE = 0
CLASSIFICATION_TYPE = U
NORAD_CAT_ID   = 67656
ELEMENT_SET_NO = 999
REV_AT_EPOCH   = 320
BSTAR          = .13239E-2
MEAN_MOTION_DOT = .202957E-2
MEAN_MOTION_DDOT = 0

CCSDS_OMM_VERS = 2.0
CREATION_DATE  = 
ORIGINATOR     = 

OBJECT_NAME    = STARLINK-36706
OBJECT_ID      = 2026-022K
CENTER_NAME    = EARTH
REF_FRAME      = TEME
TIME_SYSTEM    = UTC
MEAN_ELEMENT_THEORY = SGP/SGP4

EPOCH          = 2026-02-22T18:52:44.689440
MEAN_MOTION    = 15.75291461
ECCENTRICITY   = .0001075
INCLINATION    = 97.2841
RA_OF_ASC_NODE = 87.0392
ARG_OF_PERICENTER = 86.2572
MEAN_ANOMALY   = 273.8816

EPHEMERIS_TYPE = 0
CLASSIFICATION_TYPE = U
NORAD_CAT_ID   = 67657
ELEMENT_SET_NO = 999
REV_AT_EPOCH   = 320
BSTAR          = .14148E-2
MEAN_MOTION_DOT = .217307E-2
MEAN_MOTION_DDOT = 0

CCSDS_OMM_VERS = 2.0
CREATION_DATE  = 
ORIGINATOR     = 

OBJECT_NAME    = STARLINK-36701
OBJECT_ID      = 2026-022L
CENTER_NAME    = EARTH
REF_FRAME      = TEME
TIME_SYSTEM    = UTC
MEAN_ELEMENT_THEORY = SGP/SGP4

EPOCH          = 2026-02-22T18:51:13.177152
MEAN_MOTION    = 15.75283742
ECCENTRICITY   = .0001301
INCLINATION    = 97.2841
RA_OF_ASC_NODE = 87.0414
ARG_OF_PERICENTER = 109.8013
MEAN_ANOMALY   = 250.3393

EPHEMERIS_TYPE = 0
CLASSIFICATION_TYPE = U
NORAD_CAT_ID   = 67658
ELEMENT_SET_NO = 999
REV_AT_EPOCH   = 320
BSTAR          = .12898E-2
MEAN_MOTION_DOT = .197563E-2
MEAN_MOTION_DDOT = 0

CCSDS_OMM_VERS = 2.0
CREATION_DATE  = 
ORIGINATOR     = 

OBJECT_NAME    = STARLINK-36642
OBJECT_ID      = 2026-022M
CENTER_NAME    = EARTH
REF_FRAME      = TEME
TIME_SYSTEM    = UTC
MEAN_ELEMENT_THEORY = SGP/SGP4

EPOCH          = 2026-02-22T18:49:41.702880
MEAN_MOTION    = 15.75286586
ECCENTRICITY   = .0001517
INCLINATION    = 97.2842
RA_OF_ASC_NODE = 87.0434
ARG_OF_PERICENTER = 108.3657
MEAN_ANOMALY   = 251.7774

EPHEMERIS_TYPE = 0
CLASSIFICATION_TYPE = U
NORAD_CAT_ID   = 67659
ELEMENT_SET_NO = 999
REV_AT_EPOCH   = 320
BSTAR          = .12529E-2
MEAN_MOTION_DOT = .191804E-2
MEAN_MOTION_DDOT = 0

