STARLINK-36719          
1 67648U 26022A   26053.79721152  .00206980  00000+0  13487-2 0  9992
2 67648  97.2835  87.0268 0001259  96.2476 263.8932 15.75301330  3205
STARLINK-36342          
1 67649U 26022B   26053.79650709  .00128651  00000+0  84720-3 0  9999
2 67649  97.2840  87.0273 0001431  85.4609 274.6820 15.75279163  3202
STARLINK-36703          
1 67650U 26022C   26053.79544744  .00262088  00000+0  16958-2 0  9992
2 67650  97.2838  87.0286 0001549 116.2032 243.9393 15.75310138  3200
STARLINK-36696          
1 67651U 26022D   26053.60310872  .00180394  00000+0  11809-2 0  9995
2 67651  97.2840  86.8312 0001679 106.3080 253.8370 15.75268771  3174
STARLINK-36699          
1 67652U 26022E   26053.79297848  .00216097  00000+0  14064-2 0  9999
2 67652  97.2837  87.0323 0001402 107.8050 252.3369 15.75303838  3203
STARLINK-36694          
1 67653U 26022F   26053.72733736  .00202970  00000+0  13240-2 0  9994
2 67653  97.2838  86.9689 0001738  95.2894 264.8570 15.75287277  3194
STARLINK-36620          
1 67654U 26022G   26053.85403390  .00357348  00000+0  22824-2 0  9997
2 67654  97.2839  87.1016 0001481 129.5588 230.5808 15.75345846  3213
STARLINK-36720          
1 67655U 26022H   26053.78874429  .00244144  00000+0  15827-2 0  9999
2 67655  97.2839  87.0378 0001848 111.8826 248.2636 15.75316828  3202
STARLINK-36688          
1 67656U 26022J   26053.78804023  .00202957  00000+0  13239-2 0  9994
2 67656  97.2841  87.0379 0001452  99.2193 260.9236 15.75287125  3208
STARLINK-36706          
1 67657U 26022K   26053.78662835  .00217307  00000+0  14148-2 0  9993
2 67657  97.2841  87.0392 0001075  86.2572 273.8816 15.75291461  3207
STARLINK-36701          
1 67658U 26022L   26053.78556918  .00197563  00000+0  12898-2 0  9999
2 67658  97.2841  87.0414 0001301 109.8013 250.3393 15.75283742  3200
STARLINK-36642          
1 67659U 26022M   26053.78451045  .00191804  00000+0  12529-2 0  9998
2 67659  97.2842  87.0434 0001517 108.3657 251.7774 15.75286586  3208
